<?xml version="1.0" encoding="UTF-8"?>
<kml xmlns="http://www.opengis.net/kml/2.2">
 <Document>
  <name>QGroundControl Plan KML</name>
  <open>1</open>
  <Style id="BalloonStyle">
   <BalloonStyle>
    <text>$[description]</text>
   </BalloonStyle>
  </Style>
  <Style id="MissionLineStyle">
   <LineStyle>
    <color>ff1c78be</color>
    <width>4</width>
   </LineStyle>
  </Style>
  <Style id="SurveyPolygonStyle">
   <PolyStyle>
    <color>7f008000</color>
   </PolyStyle>
   <LineStyle>
    <color>7f008000</color>
   </LineStyle>
  </Style>
  <Folder>
   <name>Items</name>
   <Placemark>
    <name>0 </name>
    <styleUrl>#BalloonStyle</styleUrl>
    <description><![CDATA[Index: 0
Waypoint
Alt AMSL: 1919.29 ft
Alt Rel: 0.00 ft
Lat: -35.3632621
Lon: 149.1652374
]]></description>
    <Point>
     <altitudeMode>absolute</altitudeMode>
     <coordinates>149.1652374,-35.3632621,585.00</coordinates>
     <extrude>1</extrude>
    </Point>
   </Placemark>
   <Placemark>
    <name>2 </name>
    <styleUrl>#BalloonStyle</styleUrl>
    <description><![CDATA[Index: 2
Waypoint
Alt AMSL: 2083.33 ft
Alt Rel: 164.04 ft
Lat: -35.3626941
Lon: 149.1662210
]]></description>
    <Point>
     <altitudeMode>absolute</altitudeMode>
     <coordinates>149.1662210,-35.3626941,635.00</coordinates>
     <extrude>1</extrude>
    </Point>
   </Placemark>
   <Placemark>
    <name>3 Loiter (altitude)</name>
    <styleUrl>#BalloonStyle</styleUrl>
    <description><![CDATA[Index: 3
Loiter (altitude)
Alt AMSL: 164.04 ft
Alt Rel: -1755.25 ft
Lat: -35.3626941
Lon: 149.1662210
]]></description>
    <Point>
     <altitudeMode>absolute</altitudeMode>
     <coordinates>149.1662210,-35.3626941,50.00</coordinates>
     <extrude>1</extrude>
    </Point>
   </Placemark>
   <Placemark>
    <name>4 </name>
    <styleUrl>#BalloonStyle</styleUrl>
    <description><![CDATA[Index: 4
Waypoint
Alt AMSL: 2083.33 ft
Alt Rel: 164.04 ft
Lat: -35.3628397
Lon: 149.1646279
]]></description>
    <Point>
     <altitudeMode>absolute</altitudeMode>
     <coordinates>149.1646279,-35.3628397,635.00</coordinates>
     <extrude>1</extrude>
    </Point>
   </Placemark>
  </Folder>
  <Placemark>
   <styleUrl>#MissionLineStyle</styleUrl>
   <name>Flight Path</name>
   <visibility>1</visibility>
   <LookAt>
    <latitude>-35.3632621</latitude>
    <longitude>149.1652374</longitude>
    <altitude>149.17</altitude>
    <heading>-100</heading>
    <tilt>45</tilt>
    <range>2500</range>
   </LookAt>
   <LineString>
    <extruder>1</extruder>
    <tessellate>1</tessellate>
    <altitudeMode>absolute</altitudeMode>
    <coordinates>149.1652374,-35.3632621,585.00
149.1652374,-35.3632621,635.00
149.1662210,-35.3626941,635.00
149.1662210,-35.3626941,50.00
149.1646279,-35.3628397,635.00
</coordinates>
   </LineString>
  </Placemark>
 </Document>
</kml>
